NAVSTAR 77 (USA 289)    
1 43873U 18109A   23268.06463632  .00000036  00000+0  00000+0 0  9992
2 43873  55.1991 131.5462 0026131 190.3265 323.2537  2.00569416 35093
